start=new Date('2022-05-15T00:00:00.000Z').valueOf();
sats=[{"MEAN_MOTION":"15.06394277","EPOCH":"2022-05-14T17:23:05.264736","REV_AT_EPOCH":"10848","LAUNCH_DATE":"2020-06-04","TIME_SYSTEM":"UTC","MEAN_ELEMENT_THEORY":"SGP4","TLE_LINE2":"2 45673  53.0532 208.8478 0001613  54.0129 306.1009 15.06394277108488","TLE_LINE1":"1 45673U 20035S   22134.72436649 -.00001788  00000-0 -10116-3 0  9996","REF_FRAME":"TEME","NORAD_CAT_ID":"45673","EPHEMERIS_TYPE":"0","OBJECT_TYPE":"PAYLOAD","PERIOD":"95.593","MEAN_MOTION_DOT":"-0.00001788","DECAY_DATE":null,"INCLINATION":"53.0532","FILE":"3445938","RA_OF_ASC_NODE":"208.8478","OBJECT_NAME":"STARLINK-1456","SEMIMAJOR_AXIS":"6925.366","ECCENTRICITY":"0.00016130","GP_ID":"203560434","MEAN_ANOMALY":"306.1009","OBJECT_ID":"2020-035S","MEAN_MOTION_DDOT":"0.0000000000000","COUNTRY_CODE":"US","ELEMENT_SET_NO":"999","APOAPSIS":"548.348","CENTER_NAME":"EARTH","BSTAR":"-0.00010116000000","SITE":"AFETR","CLASSIFICATION_TYPE":"U","ARG_OF_PERICENTER":"54.0129","RCS_SIZE":"LARGE","PERIAPSIS":"546.114"},{"INCLINATION":"53.0535","FILE":"3445938","OBJECT_TYPE":"PAYLOAD","PERIOD":"95.592","MEAN_MOTION_DOT":"0.00003513","DECAY_DATE":null,"NORAD_CAT_ID":"45674","EPHEMERIS_TYPE":"0","REF_FRAME":"TEME","TLE_LINE1":"1 45674U 20035T   22134.59904031  .00003513  00000-0  25456-3 0  9996","TIME_SYSTEM":"UTC","MEAN_ELEMENT_THEORY":"SGP4","TLE_LINE2":"2 45674  53.0535 209.4215 0001524  66.3584 293.7565 15.06404762108434","LAUNCH_DATE":"2020-06-04","REV_AT_EPOCH":"10843","MEAN_MOTION":"15.06404762","EPOCH":"2022-05-14T14:22:37.082784","PERIAPSIS":"546.144","RCS_SIZE":"LARGE","ARG_OF_PERICENTER":"66.3584","BSTAR":"0.00025456000000","CLASSIFICATION_TYPE":"U","SITE":"AFETR","ELEMENT_SET_NO":"999","COUNTRY_CODE":"US","MEAN_MOTION_DDOT":"0.0000000000000","CENTER_NAME":"EARTH","APOAPSIS":"548.254","OBJECT_ID":"2020-035T","GP_ID":"203561191","MEAN_ANOMALY":"293.7565","OBJECT_NAME":"STARLINK-1457","ECCENTRICITY":"0.00015240","SEMIMAJOR_AXIS":"6925.334","RA_OF_ASC_NODE":"209.4215"},{"MEAN_ANOMALY":"320.7675","GP_ID":"203525417","OBJECT_ID":"2020-035U","RA_OF_ASC_NODE":"210.0673","SEMIMAJOR_AXIS":"6925.396","ECCENTRICITY":"0.00020010","OBJECT_NAME":"STARLINK-1458","ARG_OF_PERICENTER":"39.3459","RCS_SIZE":"LARGE","PERIAPSIS":"545.875","APOAPSIS":"548.646","CENTER_NAME":"EARTH","MEAN_MOTION_DDOT":"0.0000000000000","COUNTRY_CODE":"US","ELEMENT_SET_NO":"999","SITE":"AFETR","CLASSIFICATION_TYPE":"U","BSTAR":"0.00014346000000","TLE_LINE2":"2 45675  53.0554 210.0673 0002001  39.3459 320.7675 15.06384624108408","MEAN_ELEMENT_THEORY":"SGP4","TIME_SYSTEM":"UTC","TLE_LINE1":"1 45675U 20035U   22134.45530049  .00001855  00000-0  14346-3 0  9999","EPOCH":"2022-05-14T10:55:37.962336","MEAN_MOTION":"15.06384624","REV_AT_EPOCH":"10840","LAUNCH_DATE":"2020-06-04","DECAY_DATE":null,"OBJECT_TYPE":"PAYLOAD","MEAN_MOTION_DOT":"0.00001855","PERIOD":"95.593","INCLINATION":"53.0554","FILE":"3445495","REF_FRAME":"TEME","NORAD_CAT_ID":"45675","EPHEMERIS_TYPE":"0"},{"RCS_SIZE":"LARGE","PERIAPSIS":"545.925","ARG_OF_PERICENTER":"50.4799","BSTAR":"0.00006931800000","SITE":"AFETR","CLASSIFICATION_TYPE":"U","COUNTRY_CODE":"US","MEAN_MOTION_DDOT":"0.0000000000000","ELEMENT_SET_NO":"999","APOAPSIS":"548.462","CENTER_NAME":"EARTH","OBJECT_ID":"2020-035V","GP_ID":"203560688","MEAN_ANOMALY":"309.6351","OBJECT_NAME":"STARLINK-1460","SEMIMAJOR_AXIS":"6925.329","ECCENTRICITY":"0.00018320","RA_OF_ASC_NODE":"208.1251","INCLINATION":"53.0550","FILE":"3445938","OBJECT_TYPE":"PAYLOAD","MEAN_MOTION_DOT":"0.00000751","PERIOD":"95.592","DECAY_DATE":null,"EPHEMERIS_TYPE":"0","NORAD_CAT_ID":"45676","REF_FRAME":"TEME","TLE_LINE1":"1 45676U 20035V   22134.89022060  .00000751  00000-0  69318-4 0  9991","TIME_SYSTEM":"UTC","TLE_LINE2":"2 45676  53.0550 208.1251 0001832  50.4799 309.6351 15.06406505108463","MEAN_ELEMENT_THEORY":"SGP4","REV_AT_EPOCH":"10846","LAUNCH_DATE":"2020-06-04","MEAN_MOTION":"15.06406505","EPOCH":"2022-05-14T21:21:55.059840"},{"ARG_OF_PERICENTER":"52.2734","RCS_SIZE":"LARGE","PERIAPSIS":"545.837","COUNTRY_CODE":"US","MEAN_MOTION_DDOT":"0.0000000000000","ELEMENT_SET_NO":"999","APOAPSIS":"548.531","CENTER_NAME":"EARTH","BSTAR":"0.00005405000000","SITE":"AFETR","CLASSIFICATION_TYPE":"U","GP_ID":"203560934","MEAN_ANOMALY":"307.8431","OBJECT_ID":"2020-035W","RA_OF_ASC_NODE":"208.0637","OBJECT_NAME":"STARLINK-1392","SEMIMAJOR_AXIS":"6925.319","ECCENTRICITY":"0.00019450","OBJECT_TYPE":"PAYLOAD","PERIOD":"95.592","MEAN_MOTION_DOT":"0.00000524","DECAY_DATE":null,"FILE":"3445938","INCLINATION":"53.0533","REF_FRAME":"TEME","EPHEMERIS_TYPE":"0","NORAD_CAT_ID":"45677","TIME_SYSTEM":"UTC","MEAN_ELEMENT_THEORY":"SGP4","TLE_LINE2":"2 45677  53.0533 208.0637 0001945  52.2734 307.8431 15.06409747108501","TLE_LINE1":"1 45677U 20035W   22134.90127520  .00000524  00000-0  54050-4 0  9996","MEAN_MOTION":"15.06409747","EPOCH":"2022-05-14T21:37:50.177280","REV_AT_EPOCH":"10850","LAUNCH_DATE":"2020-06-04"},{"TLE_LINE1":"1 45678U 20035X   22134.89483285 -.00000401  00000-0 -79961-5 0  9993","TIME_SYSTEM":"UTC","TLE_LINE2":"2 45678  53.0537 198.0827 0001758  48.0810 312.0328 15.06405843108624","MEAN_ELEMENT_THEORY":"SGP4","LAUNCH_DATE":"2020-06-04","REV_AT_EPOCH":"10862","MEAN_MOTION":"15.06405843","EPOCH":"2022-05-14T21:28:33.558240","FILE":"3445938","INCLINATION":"53.0537","MEAN_MOTION_DOT":"-0.00000401","OBJECT_TYPE":"PAYLOAD","PERIOD":"95.592","DECAY_DATE":null,"NORAD_CAT_ID":"45678","EPHEMERIS_TYPE":"0","REF_FRAME":"TEME","OBJECT_ID":"2020-035X","GP_ID":"203561691","MEAN_ANOMALY":"312.0328","OBJECT_NAME":"STARLINK-1393","ECCENTRICITY":"0.00017580","SEMIMAJOR_AXIS":"6925.331","RA_OF_ASC_NODE":"198.0827","PERIAPSIS":"545.978","RCS_SIZE":"LARGE","ARG_OF_PERICENTER":"48.0810","BSTAR":"-0.00000799610000","CLASSIFICATION_TYPE":"U","SITE":"AFETR","ELEMENT_SET_NO":"999","COUNTRY_CODE":"US","MEAN_MOTION_DDOT":"0.0000000000000","CENTER_NAME":"EARTH","APOAPSIS":"548.413"},{"ARG_OF_PERICENTER":"61.1686","PERIAPSIS":"546.147","RCS_SIZE":"LARGE","ELEMENT_SET_NO":"999","MEAN_MOTION_DDOT":"0.0000000000000","COUNTRY_CODE":"US","CENTER_NAME":"EARTH","APOAPSIS":"548.057","BSTAR":"-0.00068634000000","CLASSIFICATION_TYPE":"U","SITE":"AFETR","GP_ID":"203561411","MEAN_ANOMALY":"298.9442","OBJECT_ID":"2020-035Y","RA_OF_ASC_NODE":"198.0907","OBJECT_NAME":"STARLINK-1394","ECCENTRICITY":"0.00013790","SEMIMAJOR_AXIS":"6925.237","MEAN_MOTION_DOT":"-0.00010500","OBJECT_TYPE":"PAYLOAD","PERIOD":"95.590","DECAY_DATE":null,"FILE":"3445938","INCLINATION":"53.0552","REF_FRAME":"TEME","NORAD_CAT_ID":"45679","EPHEMERIS_TYPE":"0","TIME_SYSTEM":"UTC","MEAN_ELEMENT_THEORY":"SGP4","TLE_LINE2":"2 45679  53.0552 198.0907 0001379  61.1686 298.9442 15.06436421108644","TLE_LINE1":"1 45679U 20035Y   22134.89851819 -.00010500  00000-0 -68634-3 0  9990","MEAN_MOTION":"15.06436421","EPOCH":"2022-05-14T21:33:51.971616","LAUNCH_DATE":"2020-06-04","REV_AT_EPOCH":"10864"},{"RA_OF_ASC_NODE":"199.8424","SEMIMAJOR_AXIS":"6925.325","ECCENTRICITY":"0.00016490","OBJECT_NAME":"STARLINK-1395","MEAN_ANOMALY":"301.9128","GP_ID":"203526169","OBJECT_ID":"2020-035Z","APOAPSIS":"548.332","CENTER_NAME":"EARTH","MEAN_MOTION_DDOT":"0.0000000000000","COUNTRY_CODE":"US","ELEMENT_SET_NO":"999","SITE":"AFETR","CLASSIFICATION_TYPE":"U","BSTAR":"0.00008739400000","ARG_OF_PERICENTER":"58.2021","RCS_SIZE":"LARGE","PERIAPSIS":"546.048","EPOCH":"2022-05-14T12:11:14.657856","MEAN_MOTION":"15.06407643","REV_AT_EPOCH":"10857","LAUNCH_DATE":"2020-06-04","TLE_LINE2":"2 45680  53.0546 199.8424 0001649  58.2021 301.9128 15.06407643108574","MEAN_ELEMENT_THEORY":"SGP4","TIME_SYSTEM":"UTC","TLE_LINE1":"1 45680U 20035Z   22134.50780854  .00001021  00000-0  87394-4 0  9991","REF_FRAME":"TEME","NORAD_CAT_ID":"45680","EPHEMERIS_TYPE":"0","DECAY_DATE":null,"MEAN_MOTION_DOT":"0.00001021","OBJECT_TYPE":"PAYLOAD","PERIOD":"95.592","INCLINATION":"53.0546","FILE":"3445495"},{"REV_AT_EPOCH":"10863","LAUNCH_DATE":"2020-06-04","EPOCH":"2022-05-14T20:03:38.120832","MEAN_MOTION":"15.06406243","TLE_LINE1":"1 45681U 20035AA  22134.83585788  .00001102  00000-0  92853-4 0  9993","MEAN_ELEMENT_THEORY":"SGP4","TLE_LINE2":"2 45681  53.0557 198.3604 0001665  63.0146 297.1013 15.06406243108632","TIME_SYSTEM":"UTC","EPHEMERIS_TYPE":"0","NORAD_CAT_ID":"45681","REF_FRAME":"TEME","INCLINATION":"53.0557","FILE":"3445938","DECAY_DATE":null,"PERIOD":"95.592","OBJECT_TYPE":"PAYLOAD","MEAN_MOTION_DOT":"0.00001102","SEMIMAJOR_AXIS":"6925.329","ECCENTRICITY":"0.00016650","OBJECT_NAME":"STARLINK-1396","RA_OF_ASC_NODE":"198.3604","OBJECT_ID":"2020-035AA","MEAN_ANOMALY":"297.1013","GP_ID":"203560435","SITE":"AFETR","CLASSIFICATION_TYPE":"U","BSTAR":"0.00009285300000","APOAPSIS":"548.347","CENTER_NAME":"EARTH","COUNTRY_CODE":"US","MEAN_MOTION_DDOT":"0.0000000000000","ELEMENT_SET_NO":"999","RCS_SIZE":"LARGE","PERIAPSIS":"546.041","ARG_OF_PERICENTER":"63.0146"},{"TLE_LINE2":"2 45682  53.0536 199.5028 0001818  54.6370 305.4788 15.06404504108188","MEAN_ELEMENT_THEORY":"SGP4","TIME_SYSTEM":"UTC","TLE_LINE1":"1 45682U 20035AB  22134.57784580 -.00002296  00000-0 -13528-3 0  9994","EPOCH":"2022-05-14T13:52:05.877120","MEAN_MOTION":"15.06404504","REV_AT_EPOCH":"10818","LAUNCH_DATE":"2020-06-04","DECAY_DATE":null,"OBJECT_TYPE":"PAYLOAD","MEAN_MOTION_DOT":"-0.00002296","PERIOD":"95.592","INCLINATION":"53.0536","FILE":"3445777","REF_FRAME":"TEME","EPHEMERIS_TYPE":"0","NORAD_CAT_ID":"45682","MEAN_ANOMALY":"305.4788","GP_ID":"203536618","OBJECT_ID":"2020-035AB","RA_OF_ASC_NODE":"199.5028","SEMIMAJOR_AXIS":"6925.335","ECCENTRICITY":"0.00018180","OBJECT_NAME":"STARLINK-1397","ARG_OF_PERICENTER":"54.6370","RCS_SIZE":"LARGE","PERIAPSIS":"545.941","APOAPSIS":"548.459","CENTER_NAME":"EARTH","COUNTRY_CODE":"US","MEAN_MOTION_DDOT":"0.0000000000000","ELEMENT_SET_NO":"999","SITE":"AFETR","CLASSIFICATION_TYPE":"U","BSTAR":"-0.00013528000000"}];
